{"type": "FeatureCollection", "features": [{"type": "Feature", "properties": {"norad_id": 50032, "name": "COSMOS 1408 DEB", "group": "cosmos-1408-debris", "lat": 78.88300568839986, "lon": 87.11008036088899, "alt_km": 419.66939195598206, "timestamp": "2025-12-25T11:37:44.705842+00:00", "meta": {"OBJECT_NAME": "COSMOS 1408 DEB", "OBJECT_ID": "1982-092RU", "EPOCH": "2025-12-25T03:30:30.157632", "MEAN_MOTION": 15.45815363, "ECCENTRICITY": 0.0016518, "INCLINATION": 82.5629, "RA_OF_ASC_NODE": 45.7917, "ARG_OF_PERICENTER": 162.9312, "MEAN_ANOMALY": 197.2496, "EPHEMERIS_TYPE": 0, "CLASSIFICATION_TYPE": "U", "NORAD_CAT_ID": 50032, "ELEMENT_SET_NO": 999, "REV_AT_EPOCH": 22795, "BSTAR": 0.00010821, "MEAN_MOTION_DOT": 5.311e-05, "MEAN_MOTION_DDOT": 0}, "tle": {"line1": "1 50032U 82092RU  25359.14618238  .00005311  00000+0  10821-3 0  9992", "line2": "2 50032  82.5629  45.7917 0016518 162.9312 197.2496 15.45815363227956"}}, "geometry": {"type": "Point", "coordinates": [87.11008036088899, 78.88300568839986]}}, {"type": "Feature", "properties": {"norad_id": 50058, "name": "COSMOS 1408 DEB", "group": "cosmos-1408-debris", "lat": 60.48540191677842, "lon": 69.24610767513506, "alt_km": 357.17689272329517, "timestamp": "2025-12-25T11:37:44.705862+00:00", "meta": {"OBJECT_NAME": "COSMOS 1408 DEB", "OBJECT_ID": "1982-092SW", "EPOCH": "2025-12-25T03:41:42.230400", "MEAN_MOTION": 15.64847387, "ECCENTRICITY": 0.0015798, "INCLINATION": 82.6116, "RA_OF_ASC_NODE": 56.3412, "ARG_OF_PERICENTER": 57.0154, "MEAN_ANOMALY": 303.2621, "EPHEMERIS_TYPE": 0, "CLASSIFICATION_TYPE": "U", "NORAD_CAT_ID": 50058, "ELEMENT_SET_NO": 999, "REV_AT_EPOCH": 22998, "BSTAR": 0.00032376, "MEAN_MOTION_DOT": 0.00031855, "MEAN_MOTION_DDOT": 0}, "tle": {"line1": "1 50058U 82092SW  25359.15396100  .00031855  00000+0  32376-3 0  9993", "line2": "2 50058  82.6116  56.3412 0015798  57.0154 303.2621 15.64847387229987"}}, "geometry": {"type": "Point", "coordinates": [69.24610767513506, 60.48540191677842]}}, {"type": "Feature", "properties": {"norad_id": 50404, "name": "COSMOS 1408 DEB", "group": "cosmos-1408-debris", "lat": 52.011827862929465, "lon": -147.9272128191325, "alt_km": 536.2553792563258, "timestamp": "2025-12-25T11:37:44.705875+00:00", "meta": {"OBJECT_NAME": "COSMOS 1408 DEB", "OBJECT_ID": "1982-092ADS", "EPOCH": "2025-12-25T00:18:07.840800", "MEAN_MOTION": 15.15742025, "ECCENTRICITY": 0.0166795, "INCLINATION": 82.202, "RA_OF_ASC_NODE": 202.4509, "ARG_OF_PERICENTER": 156.6613, "MEAN_ANOMALY": 204.2309, "EPHEMERIS_TYPE": 0, "CLASSIFICATION_TYPE": "U", "NORAD_CAT_ID": 50404, "ELEMENT_SET_NO": 999, "REV_AT_EPOCH": 21379, "BSTAR": 0.0033616, "MEAN_MOTION_DOT": 0.00092417, "MEAN_MOTION_DDOT": 0}, "tle": {"line1": "1 50404U 82092ADS 25359.01259075  .00092417  00000+0  33616-2 0  9990", "line2": "2 50404  82.2020 202.4509 0166795 156.6613 204.2309 15.15742025213797"}}, "geometry": {"type": "Point", "coordinates": [-147.9272128191325, 52.011827862929465]}}, {"type": "Feature", "properties": {"norad_id": 50621, "name": "COSMOS 1408 DEB", "group": "cosmos-1408-debris", "lat": 81.44205556065069, "lon": -179.25446628378583, "alt_km": 368.76376324152807, "timestamp": "2025-12-25T11:37:44.705887+00:00", "meta": {"OBJECT_NAME": "COSMOS 1408 DEB", "OBJECT_ID": "1982-092ALR", "EPOCH": "2025-12-24T10:33:08.293248", "MEAN_MOTION": 15.57249647, "ECCENTRICITY": 0.00291087, "INCLINATION": 82.5683, "RA_OF_ASC_NODE": 61.9949, "ARG_OF_PERICENTER": 110.4695, "MEAN_ANOMALY": 249.969, "EPHEMERIS_TYPE": 0, "CLASSIFICATION_TYPE": "U", "NORAD_CAT_ID": 50621, "ELEMENT_SET_NO": 999, "REV_AT_EPOCH": 22432, "BSTAR": 0.00038535081, "MEAN_MOTION_DOT": 0.00028709, "MEAN_MOTION_DDOT": 0}, "tle": {"line1": "1 50621U 82092ALR 25358.43967932  .00028709  00000+0  38535-3 0  9993", "line2": "2 50621  82.5683  61.9949 0029108 110.4695 249.9690 15.57249647224324"}}, "geometry": {"type": "Point", "coordinates": [-179.25446628378583, 81.44205556065069]}}]}